{"type":"FeatureCollection","features":[{"type":"Feature","geometry":{"type":"Polygon","coordinates":[[[-122.1029573,56.80895971],[-122.10350646,56.80876413],[-122.10480945,56.80986497],[-122.10696135,56.80909855],[-122.10689608,56.80884208],[-122.10657169,56.80886691],[-122.10626526,56.80766272],[-122.10600425,56.80697572],[-122.10321554,56.80796896],[-122.10294814,56.80774304],[-122.10194158,56.80810151],[-122.1029573,56.80895971]]]},"properties":{"pads":"gundy-02","pad_name":"Gundy pad 2","wells":12,"proponent":"Tourmaline Oil Corp.","stage":"Post Construction Plan","construction":"Constructed","area_ha":4.94,"permit_id":16875,"land_id":195081,"source":"BCER Oil and Gas Well/Facility Area Permits (WHSE_MINERAL_TENURE.OG_WELL_FACILITY_PERMIT_SP) via openmaps.gov.bc.ca WFS, 2026-09-16"}},{"type":"Feature","geometry":{"type":"Polygon","coordinates":[[[-122.13005947,56.79190781],[-122.12674249,56.79073785],[-122.12395904,56.79311431],[-122.12404112,56.79314325],[-122.12368959,56.79344348],[-122.12358394,56.79358882],[-122.12355587,56.7936698],[-122.12669786,56.79477807],[-122.13005947,56.79190781]]]},"properties":{"pads":"gundy-03, gundy-04, gundy-05, gundy-06","pad_name":"Gundy pad 3 + Gundy pad 4 + Gundy pad 5 + Gundy pad 6","wells":33,"proponent":"Tourmaline Oil Corp.","stage":"Post Construction Plan","construction":"Constructed","area_ha":9.11,"permit_id":16891,"land_id":196837,"source":"BCER Oil and Gas Well/Facility Area Permits (WHSE_MINERAL_TENURE.OG_WELL_FACILITY_PERMIT_SP) via openmaps.gov.bc.ca WFS, 2026-09-16"}},{"type":"Feature","geometry":{"type":"Polygon","coordinates":[[[-122.10806267,56.7989323],[-122.1080627,56.79893339],[-122.10809161,56.79995057],[-122.1080947,56.80069424],[-122.10994873,56.80075617],[-122.11005177,56.80091083],[-122.11106332,56.80087984],[-122.11164558,56.80069418],[-122.11243847,56.80013466],[-122.11089446,56.79864429],[-122.10859411,56.79887825],[-122.10806267,56.7989323]]]},"properties":{"pads":"gundy-01","pad_name":"Gundy pad 1","wells":10,"proponent":"Tourmaline Oil Corp.","stage":"Post Construction Plan","construction":"Constructed","area_ha":5.09,"permit_id":17355,"land_id":205417,"source":"BCER Oil and Gas Well/Facility Area Permits (WHSE_MINERAL_TENURE.OG_WELL_FACILITY_PERMIT_SP) via openmaps.gov.bc.ca WFS, 2026-09-16"}},{"type":"Feature","geometry":{"type":"Polygon","coordinates":[[[-122.09794889,56.78558148],[-122.10008361,56.78756946],[-122.1031982,56.78656184],[-122.10106337,56.78457391],[-122.09794889,56.78558148]]]},"properties":{"pads":"gundy-07, gundy-08","pad_name":"Gundy pad 7 + Gundy pad 8","wells":21,"proponent":"Tourmaline Oil Corp.","stage":"Post Construction Plan","construction":"Constructed","area_ha":5.68,"permit_id":18736,"land_id":184663,"source":"BCER Oil and Gas Well/Facility Area Permits (WHSE_MINERAL_TENURE.OG_WELL_FACILITY_PERMIT_SP) via openmaps.gov.bc.ca WFS, 2026-09-16"}}]}